OBJECT_NAME,OBJECT_ID,EPOCH,MEAN_MOTION,ECCENTRICITY,INCLINATION,RA_OF_ASC_NODE,ARG_OF_PERICENTER,MEAN_ANOMALY,EPHEMERIS_TYPE,CLASSIFICATION_TYPE,NORAD_CAT_ID,ELEMENT_SET_NO,REV_AT_EPOCH,BSTAR,MEAN_MOTION_DOT,MEAN_MOTION_DDOT
ONEWEB-0236,2021-045AG,2026-07-10T12:36:38.218176,13.15548104,.00022343,87.8994,254.5577,97.3396,262.7988,0,U,48797,999,24732,-.16952496E-3,-.51E-6,0
ONEWEB-0248,2021-045AH,2026-07-08T17:06:20.641824,13.15548631,.00023066,87.9000,254.9035,110.5693,249.5685,0,U,48798,999,24724,.51649143E-3,.207E-5,0
ONEWEB-0225,2021-045AJ,2026-07-10T04:19:13.272672,13.15548055,.00020981,87.8990,254.6186,113.8078,246.3272,0,U,48799,999,24744,.22575108E-3,.98E-6,0
ONEWEB-0215,2021-045AK,2026-07-10T03:35:51.625248,13.15549141,.0002261,87.9002,254.6084,116.6726,243.4636,0,U,48800,999,24731,.71492033E-4,.4E-6,0
ONEWEB-0216,2021-045AL,2026-07-10T03:49:33.472416,13.15548002,.00019519,87.8991,254.6208,98.0847,262.0504,0,U,48801,999,24732,.3312737E-3,.138E-5,0
ONEWEB-0239,2021-045AM,2026-07-10T03:56:24.249120,13.15547720,.00025834,87.8982,254.6235,115.3998,244.7400,0,U,48802,999,24736,.41039004E-3,.167E-5,0
ONEWEB-0249,2021-060A,2026-07-09T11:19:38.300448,13.16595825,.00021964,87.9079,224.3518,97.2733,262.8648,0,U,48967,999,24254,.15401583E-3,.72E-6,0
ONEWEB-0250,2021-060B,2026-07-10T07:48:16.544736,13.25835212,.0003095,87.9078,221.8633,91.1462,269.0029,0,U,48968,999,24328,.59812968E-4,.39E-6,0
ONEWEB-0252,2021-060D,2026-07-10T00:50:11.031360,13.16594806,.00018563,87.9081,224.2323,95.2873,264.8470,0,U,48970,999,24266,-.8643079E-4,-.2E-6,0
ONEWEB-0253,2021-060E,2026-07-10T07:51:58.195296,13.16594724,.00021814,87.9075,224.1799,94.0569,266.0812,0,U,48971,999,24263,.30531507E-4,.25E-6,0
ONEWEB-0254,2021-060F,2026-07-10T00:47:54.474432,13.16594155,.00022683,87.9081,224.2359,101.3151,258.8235,0,U,48972,999,24259,-.68746957E-4,-.13E-6,0
ONEWEB-0255,2021-060G,2026-07-09T11:07:08.404608,13.16593573,.00020784,87.9077,224.3554,98.9236,261.2131,0,U,48973,999,24259,.41905918E-4,.29E-6,0
ONEWEB-0256,2021-060H,2026-07-10T07:48:31.382208,13.16601318,.00019987,87.9067,224.1878,90.1860,269.9500,0,U,48974,999,24267,-.25011936E-2,-.943E-5,0
ONEWEB-0257,2021-060J,2026-07-10T01:17:32.583840,13.16593799,.0002019,87.9074,224.2291,97.7455,262.3906,0,U,48975,999,24259,-.7861441E-4,-.17E-6,0
ONEWEB-0258,2021-060K,2026-07-10T01:19:49.534752,13.16593686,.00021177,87.9080,224.2414,95.5921,264.5452,0,U,48976,999,24260,-.11111258E-3,-.3E-6,0
ONEWEB-0259,2021-060L,2026-07-09T12:24:39.334752,13.16593221,.00022438,87.9076,224.3468,97.6020,262.5366,0,U,48977,999,24256,-.15840773E-3,-.48E-6,0
ONEWEB-0260,2021-060M,2026-07-10T00:58:08.816448,13.16595322,.00016824,87.9074,224.2437,90.6995,269.4329,0,U,48978,999,24261,-.15587087E-3,-.47E-6,0
ONEWEB-0261,2021-060N,2026-07-10T02:04:17.324832,13.16593786,.00020186,87.9079,224.2347,105.4202,254.7152,0,U,48979,999,24267,.2395473E-3,.104E-5,0
ONEWEB-0262,2021-060P,2026-07-10T01:35:47.039424,13.16593523,.00022745,87.9076,224.2253,97.1765,262.9625,0,U,48980,999,24263,-.15847872E-3,-.48E-6,0
ONEWEB-0263,2021-060Q,2026-07-10T07:49:41.121696,13.16594133,.00021139,87.9083,224.1858,104.1317,256.0049,0,U,48981,999,24263,.21017794E-3,.93E-6,0
ONEWEB-0264,2021-060R,2026-07-10T01:25:29.716608,13.16593399,.00019148,87.9073,224.2410,97.7667,262.3682,0,U,48982,999,24260,-.66426361E-3,-.241E-5,0
ONEWEB-0266,2021-060T,2026-07-10T01:56:17.716704,13.16595250,.00021498,87.9080,224.2282,93.4479,266.6898,0,U,48984,999,24259,.25218572E-3,.109E-5,0
ONEWEB-0267,2021-060U,2026-07-10T07:40:34.256352,13.16593471,.00019755,87.9083,224.1776,99.7043,260.4312,0,U,48985,999,24263,.27181511E-4,.23E-6,0
ONEWEB-0268,2021-060V,2026-07-10T01:26:39.740352,13.16593170,.00019267,87.9080,224.2386,93.3227,266.8124,0,U,48986,999,24286,-.22415723E-3,-.73E-6,0
ONEWEB-0269,2021-060W,2026-07-10T00:59:18.216384,13.16593635,.00019856,87.9074,224.2427,88.7175,271.4183,0,U,48987,999,24263,-.1298747E-3,-.37E-6,0
ONEWEB-0270,2021-060X,2026-07-10T01:24:23.173056,13.16593624,.00022656,87.9080,224.2408,103.4060,256.7324,0,U,48988,999,24267,.21966556E-4,.21E-6,0
ONEWEB-0271,2021-060Y,2026-07-10T01:06:08.806464,13.16594087,.00021462,87.9093,224.2333,101.7221,258.4151,0,U,48989,999,24267,-.13395164E-3,-.38E-6,0
ONEWEB-0272,2021-060Z,2026-07-10T01:38:03.963552,13.16595350,.00017586,87.9071,224.2390,95.6760,264.4571,0,U,48990,999,24262,-.10278428E-3,-.26E-6,0
ONEWEB-0273,2021-060AA,2026-07-10T07:38:17.095488,13.16594119,.00021284,87.9084,224.1897,99.4740,260.6631,0,U,48991,999,24263,.34230066E-3,.144E-5,0
ONEWEB-0274,2021-060AB,2026-07-09T12:10:57.793440,13.16595233,.00017461,87.9073,224.3513,93.3185,266.8146,0,U,48992,999,24256,-.512617E-4,-.7E-7,0
