ONEWEB-0236             
1 48797U 21045AG  26191.52544234 -.00000051  00000+0 -16952-3 0  9998
2 48797  87.8994 254.5577 0002234  97.3396 262.7988 13.15548104247327
ONEWEB-0248             
1 48798U 21045AH  26189.71273891  .00000207  00000+0  51649-3 0  9998
2 48798  87.9000 254.9035 0002306 110.5693 249.5685 13.15548631247241
ONEWEB-0225             
1 48799U 21045AJ  26191.18001473  .00000098  00000+0  22575-3 0  9992
2 48799  87.8990 254.6186 0002098 113.8078 246.3272 13.15548055247443
ONEWEB-0215             
1 48800U 21045AK  26191.14990307  .00000040  00000+0  71492-4 0  9994
2 48800  87.9002 254.6084 0002261 116.6726 243.4636 13.15549141247316
ONEWEB-0216             
1 48801U 21045AL  26191.15941519  .00000138  00000+0  33127-3 0  9997
2 48801  87.8991 254.6208 0001951  98.0847 262.0504 13.15548002247320
ONEWEB-0239             
1 48802U 21045AM  26191.16416955  .00000167  00000+0  41039-3 0  9993
2 48802  87.8982 254.6235 0002583 115.3998 244.7400 13.15547720247365
ONEWEB-0249             
1 48967U 21060A   26190.47197107  .00000072  00000+0  15402-3 0  9990
2 48967  87.9079 224.3518 0002196  97.2733 262.8648 13.16595825242548
ONEWEB-0250             
1 48968U 21060B   26191.32519149  .00000039  00000+0  59813-4 0  9998
2 48968  87.9078 221.8633 0003095  91.1462 269.0029 13.25835212243280
ONEWEB-0252             
1 48970U 21060D   26191.03484990 -.00000020  00000+0 -86431-4 0  9992
2 48970  87.9081 224.2323 0001856  95.2873 264.8470 13.16594806242669
ONEWEB-0253             
1 48971U 21060E   26191.32775689  .00000025  00000+0  30532-4 0  9997
2 48971  87.9075 224.1799 0002181  94.0569 266.0812 13.16594724242630
ONEWEB-0254             
1 48972U 21060F   26191.03326938 -.00000013  00000+0 -68747-4 0  9993
2 48972  87.9081 224.2359 0002268 101.3151 258.8235 13.16594155242597
ONEWEB-0255             
1 48973U 21060G   26190.46329172  .00000029  00000+0  41906-4 0  9996
2 48973  87.9077 224.3554 0002078  98.9236 261.2131 13.16593573242591
ONEWEB-0256             
1 48974U 21060H   26191.32536322 -.00000943  00000+0 -25012-2 0  9995
2 48974  87.9067 224.1878 0001998  90.1860 269.9500 13.16601318242676
ONEWEB-0257             
1 48975U 21060J   26191.05384935 -.00000017  00000+0 -78614-4 0  9997
2 48975  87.9074 224.2291 0002019  97.7455 262.3906 13.16593799242594
ONEWEB-0258             
1 48976U 21060K   26191.05543443 -.00000030  00000+0 -11111-3 0  9992
2 48976  87.9080 224.2414 0002117  95.5921 264.5452 13.16593686242609
ONEWEB-0259             
1 48977U 21060L   26190.51712193 -.00000048  00000+0 -15841-3 0  9996
2 48977  87.9076 224.3468 0002243  97.6020 262.5366 13.16593221242560
ONEWEB-0260             
1 48978U 21060M   26191.04037982 -.00000047  00000+0 -15587-3 0  9998
2 48978  87.9074 224.2437 0001682  90.6995 269.4329 13.16595322242619
ONEWEB-0261             
1 48979U 21060N   26191.08631163  .00000104  00000+0  23955-3 0  9994
2 48979  87.9079 224.2347 0002018 105.4202 254.7152 13.16593786242674
ONEWEB-0262             
1 48980U 21060P   26191.06651666 -.00000048  00000+0 -15848-3 0  9995
2 48980  87.9076 224.2253 0002274  97.1765 262.9625 13.16593523242635
ONEWEB-0263             
1 48981U 21060Q   26191.32617039  .00000093  00000+0  21018-3 0  9995
2 48981  87.9083 224.1858 0002113 104.1317 256.0049 13.16594133242630
ONEWEB-0264             
1 48982U 21060R   26191.05937172 -.00000241  00000+0 -66426-3 0  9998
2 48982  87.9073 224.2410 0001914  97.7667 262.3682 13.16593399242601
ONEWEB-0266             
1 48984U 21060T   26191.08076061  .00000109  00000+0  25219-3 0  9990
2 48984  87.9080 224.2282 0002149  93.4479 266.6898 13.16595250242595
ONEWEB-0267             
1 48985U 21060U   26191.31984093  .00000023  00000+0  27182-4 0  9997
2 48985  87.9083 224.1776 0001975  99.7043 260.4312 13.16593471242639
ONEWEB-0268             
1 48986U 21060V   26191.06018218 -.00000073  00000+0 -22416-3 0  9998
2 48986  87.9080 224.2386 0001926  93.3227 266.8124 13.16593170242867
ONEWEB-0269             
1 48987U 21060W   26191.04118306 -.00000037  00000+0 -12987-3 0  9998
2 48987  87.9074 224.2427 0001985  88.7175 271.4183 13.16593635242630
ONEWEB-0270             
1 48988U 21060X   26191.05860154  .00000021  00000+0  21967-4 0  9995
2 48988  87.9080 224.2408 0002265 103.4060 256.7324 13.16593624242672
ONEWEB-0271             
1 48989U 21060Y   26191.04593526 -.00000038  00000+0 -13395-3 0  9996
2 48989  87.9093 224.2333 0002146 101.7221 258.4151 13.16594087242673
ONEWEB-0272             
1 48990U 21060Z   26191.06810143 -.00000026  00000+0 -10278-3 0  9991
2 48990  87.9071 224.2390 0001758  95.6760 264.4571 13.16595350242623
ONEWEB-0273             
1 48991U 21060AA  26191.31825342  .00000144  00000+0  34230-3 0  9990
2 48991  87.9084 224.1897 0002128  99.4740 260.6631 13.16594119242639
ONEWEB-0274             
1 48992U 21060AB  26190.50761335 -.00000007  00000+0 -51262-4 0  9997
2 48992  87.9073 224.3513 0001746  93.3185 266.8146 13.16595233242565
